NORAD_CAT_ID,OBJECT_NAME,OBJECT_TYPE,EPOCH,MEAN_MOTION,ECCENTRICITY,INCLINATION,RA_OF_ASC_NODE,ARG_OF_PERICENTER,MEAN_ANOMALY,BSTAR,MEAN_MOTION_DOT,MEAN_MOTION_DDOT,TLE_LINE0,TLE_LINE1,TLE_LINE2,SEMIMAJOR_AXIS,PERIOD,APOGEE,PERIGEE,DECAYED
51888.0,STARLINK-3536,PAYLOAD,2022-06-20 14:00:01,15.08845299,0.0001496,53.2175,335.8982,54.2532,325.1988,-0.0011392,-0.00018375,0.0,0 STARLINK-3536,1 51888U 22022AN  22171.58334491 -.00018375  00000-0 -11392-2 0  9992,2 51888  53.2175 335.8982 0001496  54.2532 325.1988 15.08845299  1305,6917.864000000001,95.437,540.764,538.694,0.0
51888.0,STARLINK-3536,PAYLOAD,2022-06-20 22:00:00,15.08819063,0.0001616,53.2173,334.4031,46.6394,344.411,0.0033266,0.00053023,0.0,0 STARLINK-3536,1 51888U 22022AN  22171.91667824  .00053023  00000-0  33266-2 0  9999,2 51888  53.2173 334.4031 0001616  46.6394 344.4110 15.08819063 18273,6917.944,95.439,540.927,538.691,0.0
51888.0,STARLINK-3536,PAYLOAD,2022-06-21 14:00:01,15.08881595,0.0001554,53.2175,331.4092,51.9169,2.3307,-0.0018956,-0.00030364,0.0,0 STARLINK-3536,1 51888U 22022AN  22172.58334491 -.00030364  00000-0 -18956-2 0  9998,2 51888  53.2175 331.4092 0001554  51.9169   2.3307 15.08881595 18377,6917.753000000002,95.435,540.693,538.543,0.0
51888.0,STARLINK-3536,PAYLOAD,2022-06-21 22:00:00,15.08844882,0.0001645,53.2173,329.9138,44.2017,21.68,0.00039058,5.934e-05,0.0,0 STARLINK-3536,1 51888U 22022AN  22172.91667824  .00005934  00000-0  39058-3 0  9994,2 51888  53.2173 329.9138 0001645  44.2017  21.6800 15.08844882  1301,6917.865,95.437,540.868,538.592,0.0
51888.0,STARLINK-3536,PAYLOAD,2022-06-22 14:00:01,15.08849298,0.0001649,53.2176,326.92,51.6243,37.4417,-0.0013097,-0.00021077,0.0,0 STARLINK-3536,1 51888U 22022AN  22173.58334491 -.00021077  00000-0 -13097-2 0  9991,2 51888  53.2176 326.9200 0001649  51.6243  37.4417 15.08849298  1303,6917.852,95.437,540.8580000000002,538.576,0.0
51888.0,STARLINK-3536,PAYLOAD,2022-06-22 22:00:00,15.08822838,0.000177,53.2174,325.4245,46.0028,54.7069,0.0027718,0.00044081,0.0,0 STARLINK-3536,1 51888U 22022AN  22173.91667824  .00044081  00000-0  27718-2 0  9990,2 51888  53.2174 325.4245 0001770  46.0028  54.7069 15.08822838 18571,6917.933000000001,95.439,541.0219999999998,538.573,0.0
51888.0,STARLINK-3536,PAYLOAD,2022-06-23 14:00:01,15.08847252,0.0001781,53.2179,322.4307,53.5354,70.3716,-0.002056,-0.00032867,0.0,0 STARLINK-3536,1 51888U 22022AN  22174.58334491 -.00032867  00000-0 -20560-2 0  9994,2 51888  53.2179 322.4307 0001781  53.5354  70.3716 15.08847252 18670,6917.858,95.437,540.955,538.491,0.0
51888.0,STARLINK-3536,PAYLOAD,2022-06-23 22:00:00,15.08834212,0.0001862,53.2176,320.9351,48.2007,87.2962,0.00014279,1.985e-05,0.0,0 STARLINK-3536,1 51888U 22022AN  22174.91667824  .00001985  00000-0  14279-3 0  9996,2 51888  53.2176 320.9351 0001862  48.2007  87.2962 15.08834212  1309,6917.898,95.438,541.0509999999998,538.475,0.0
51888.0,STARLINK-3536,PAYLOAD,2022-06-24 06:00:02,15.08798491,0.0001592,53.2178,319.4369,52.9723,94.1834,0.0022529,0.00035708,0.0,0 STARLINK-3536,1 51888U 22022AN  22175.25002315  .00035708  00000-0  22529-2 0  9998,2 51888  53.2178 319.4369 0001592  52.9723  94.1834 15.08798491 18772,6918.007,95.44,540.974,538.771,0.0
51888.0,STARLINK-3536,PAYLOAD,2022-06-24 14:00:01,15.08832765,0.0001701,53.218,317.9417,52.2404,106.4085,-0.0013425,-0.00021586,0.0,0 STARLINK-3536,1 51888U 22022AN  22175.58334491 -.00021586  00000-0 -13425-2 0  9993,2 51888  53.2180 317.9417 0001701  52.2404 106.4085 15.08832765  1302,6917.903,95.438,540.944,538.591,0.0
51888.0,STARLINK-3536,PAYLOAD,2022-06-24 22:00:01,15.08820641,0.0001773,53.2175,316.4458,47.4964,122.7917,0.0012811,0.00020149,0.0,0 STARLINK-3536,1 51888U 22022AN  22175.91668981  .00020149  00000-0  12811-2 0  9994,2 51888  53.2175 316.4458 0001773  47.4964 122.7917 15.08820641 18876,6917.94,95.439,541.031,538.578,0.0
51888.0,STARLINK-3536,PAYLOAD,2022-06-25 14:00:01,15.08849415,0.0001678,53.2178,313.4528,52.6028,140.7877,-0.0012246,-0.0001973,0.0,0 STARLINK-3536,1 51888U 22022AN  22176.58334491 -.00019730  00000-0 -12246-2 0  9992,2 51888  53.2178 313.4528 0001678  52.6028 140.7877 15.08849415  1302,6917.852,95.437,540.877,538.556,0.0
51888.0,STARLINK-3536,PAYLOAD,2022-06-25 22:00:00,15.08848372,0.0001736,53.2173,311.9567,48.4589,156.5333,0.00071752,0.00011152,0.0,0 STARLINK-3536,1 51888U 22022AN  22176.91667824  .00011152  00000-0  71752-3 0  9994,2 51888  53.2173 311.9567 0001736  48.4589 156.5333 15.08848372 19024,6917.855,95.437,540.9209999999998,538.519,0.0
51888.0,STARLINK-3536,PAYLOAD,2022-06-26 14:00:01,15.08891325,0.0001727,53.2176,308.9593,54.4013,173.8843,-0.00991,-0.00154854,0.0,0 STARLINK-3536,1 51888U 22022AN  22177.58335648 -.00154854  00000-0 -99100-2 0  9999,2 51888  53.2176 308.9593 0001727  54.4013 173.8843 15.08891325  1307,6917.724,95.434,540.783,538.394,0.0
51888.0,STARLINK-3536,PAYLOAD,2022-06-26 22:00:00,15.08863587,0.0001756,53.217,307.4676,51.0024,188.8212,-0.0027139,-0.00043249,0.0,0 STARLINK-3536,1 51888U 22022AN  22177.91667824 -.00043249  00000-0 -27139-2 0  9998,2 51888  53.2170 307.4676 0001756  51.0024 188.8212 15.08863587 19173,6917.808000000001,95.436,540.888,538.4590000000002,0.0
51888.0,STARLINK-3536,PAYLOAD,2022-06-27 14:00:01,15.08838378,0.0001703,53.2172,304.4749,52.9997,210.0058,-0.00076961,-0.00012515,0.0,0 STARLINK-3536,1 51888U 22022AN  22178.58334491 -.00012515  00000-0 -76961-3 0  9993,2 51888  53.2172 304.4749 0001703  52.9997 210.0058 15.08838378 19282,6917.885,95.438,540.928,538.572,0.0
51888.0,STARLINK-3536,PAYLOAD,2022-06-27 22:00:00,15.08860539,0.0001673,53.2169,302.9785,48.4986,226.0926,-0.0034234,-0.00054391,0.0,0 STARLINK-3536,1 51888U 22022AN  22178.91667824 -.00054391  00000-0 -34234-2 0  9993,2 51888  53.2169 302.9785 0001673  48.4986 226.0926 15.08860539  1304,6917.818,95.436,540.84,538.525,0.0
51888.0,STARLINK-3536,PAYLOAD,2022-06-28 14:00:01,15.08825869,0.0001681,53.2172,299.986,50.3577,247.3915,-0.0008816,-0.00014286,0.0,0 STARLINK-3536,1 51888U 22022AN  22179.58334491 -.00014286  00000-0 -88160-3 0  9995,2 51888  53.2172 299.9860 0001681  50.3577 247.3915 15.08825869  1305,6917.924,95.438,540.951,538.626,0.0
51888.0,STARLINK-3536,PAYLOAD,2022-06-28 22:00:00,15.08839568,0.0001681,53.2171,298.4896,46.9079,262.4105,-0.001256,-0.00020222,0.0,0 STARLINK-3536,1 51888U 22022AN  22179.91667824 -.00020222  00000-0 -12560-2 0  9998,2 51888  53.2171 298.4896 0001681  46.9079 262.4105 15.08839568 19483,6917.882,95.438,540.91,538.5840000000002,0.0
51888.0,STARLINK-3536,PAYLOAD,2022-06-29 14:00:01,15.08839708,0.0001754999999999,53.2175,295.4973,49.7953,282.6914,-0.00085212,-0.00013824,0.0,0 STARLINK-3536,1 51888U 22022AN  22180.58334491 -.00013824  00000-0 -85212-3 0  9999,2 51888  53.2175 295.4973 0001755  49.7953 282.6914 15.08839708  1304,6917.880999999999,95.438,540.96,538.5319999999998,0.0
51888.0,STARLINK-3536,PAYLOAD,2022-06-29 22:00:00,15.08855005,0.0001736,53.2174,294.0007,47.0506,297.0207,-0.0016241,-0.00026053,0.0,0 STARLINK-3536,1 51888U 22022AN  22180.91667824 -.00026053  00000-0 -16241-2 0  9998,2 51888  53.2174 294.0007 0001736  47.0506 297.0207 15.08855005  1303,6917.835,95.437,540.9,538.499,0.0
51888.0,STARLINK-3536,PAYLOAD,2022-06-30 14:00:01,15.08853114,0.00018,53.2178,291.0085,49.2265,318.0490000000001,-0.00078838,-0.00012818,0.0,0 STARLINK-3536,1 51888U 22022AN  22181.58334491 -.00012818  00000-0 -78838-3 0  9998,2 51888  53.2178 291.0085 0001800  49.2265 318.0490 15.08853114  1305,6917.84,95.437,540.951,538.46,0.0
51888.0,STARLINK-3536,PAYLOAD,2022-06-30 22:00:00,15.08878918,0.000172,53.2177,289.5117,46.1987,332.6774,-0.0047356,-0.00074952,0.0,0 STARLINK-3536,1 51888U 22022AN  22181.91667824 -.00074952  00000-0 -47356-2 0  9991,2 51888  53.2177 289.5117 0001720  46.1987 332.6774 15.08878918 19787,6917.761,95.435,540.816,538.437,0.0
51888.0,STARLINK-3536,PAYLOAD,2022-07-01 14:00:01,15.08837724,0.0001733,53.2179,286.5198,46.9484,355.1231,-0.00066121,-0.00010795,0.0,0 STARLINK-3536,1 51888U 22022AN  22182.58334491 -.00010795  00000-0 -66121-3 0  9993,2 51888  53.2179 286.5198 0001733  46.9484 355.1231 15.08837724  1306,6917.887,95.438,540.951,538.553,0.0
51888.0,STARLINK-3536,PAYLOAD,2022-07-01 22:00:00,15.08854467,0.000167,53.2176,285.0229,45.9331,7.722,-0.0020046,-0.00032062,0.0,0 STARLINK-3536,1 51888U 22022AN  22182.91667824 -.00032062  00000-0 -20046-2 0  9995,2 51888  53.2176 285.0229 0001670  45.9331   7.7220 15.08854467  1303,6917.8359999999975,95.437,540.856,538.5459999999998,0.0
51888.0,STARLINK-3536,PAYLOAD,2022-07-02 14:00:01,15.08848485,0.0001712,53.2176,282.0311,47.0594,29.7975,-0.00036985,-6.171e-05,0.0,0 STARLINK-3536,1 51888U 22022AN  22183.58334491 -.00006171  00000-0 -36985-3 0  9992,2 51888  53.2176 282.0311 0001712  47.0594  29.7975 15.08848485 20038,6917.854,95.437,540.904,538.535,0.0
51888.0,STARLINK-3536,PAYLOAD,2022-07-02 22:00:00,15.08877636,0.000165,53.2172,280.5339,46.5372,41.9329,-0.0014619,-0.00023503,0.0,0 STARLINK-3536,1 51888U 22022AN  22183.91667824 -.00023503  00000-0 -14619-2 0  9995,2 51888  53.2172 280.5339 0001650  46.5372  41.9329 15.08877636 20080,6917.765,95.435,540.7719999999998,538.489,0.0
51888.0,STARLINK-3536,PAYLOAD,2022-07-03 14:00:01,15.08856221,0.0001756,53.217,277.5422,49.0473,62.6733,-0.002732,-0.00043525,0.0,0 STARLINK-3536,1 51888U 22022AN  22184.58334491 -.00043525  00000-0 -27320-2 0  9999,2 51888  53.2170 277.5422 0001756  49.0473  62.6733 15.08856221  1304,6917.831,95.437,540.911,538.481,0.0
51888.0,STARLINK-3536,PAYLOAD,2022-07-03 22:00:00,15.08840271,0.0001665,53.2165,276.0448,49.5569,73.7558,-0.0046351,-0.00073307,0.0,0 STARLINK-3536,1 51888U 22022AN  22184.91667824 -.00073307  00000-0 -46351-2 0  9991,2 51888  53.2165 276.0448 0001665  49.5569  73.7558 15.08840271  1306,6917.88,95.438,540.896,538.5930000000002,0.0
